{
    "links": {
        "self": "http://www.neowsapp.com/rest/v1/neo/3607962?api_key=iIulBulltgU6a56xZRHN4H3l9WmuAYTsLGpBGhQ2"
    },
    "id": "3607962",
    "neo_reference_id": "3607962",
    "name": "(2012 QA18)",
    "designation": "2012 QA18",
    "nasa_jpl_url": "http://ssd.jpl.nasa.gov/sbdb.cgi?sstr=3607962",
    "absolute_magnitude_h": 23.7,
    "estimated_diameter": {
        "kilometers": {
            "estimated_diameter_min": 0.0483676488,
            "estimated_diameter_max": 0.1081533507
        },
        "meters": {
            "estimated_diameter_min": 48.3676488219,
            "estimated_diameter_max": 108.1533506775
        },
        "miles": {
            "estimated_diameter_min": 0.0300542543,
            "estimated_diameter_max": 0.0672033557
        },
        "feet": {
            "estimated_diameter_min": 158.6865169607,
            "estimated_diameter_max": 354.8338390368
        }
    },
    "is_potentially_hazardous_asteroid": false,
    "close_approach_data": [
        {
            "close_approach_date": "2012-08-21",
            "close_approach_date_full": "2012-Aug-21 13:04",
            "epoch_date_close_approach": 1345554240000,
            "relative_velocity": {
                "kilometers_per_second": "13.3871014735",
                "kilometers_per_hour": "48193.5653046742",
                "miles_per_hour": "29945.6072861182"
            },
            "miss_distance": {
                "astronomical": "0.0710919193",
                "lunar": "27.6547566077",
                "kilometers": "10635199.701491891",
                "miles": "6608406.6586184558"
            },
            "orbiting_body": "Earth"
        }
    ],
    "orbital_data": {
        "orbit_id": "4",
        "orbit_determination_date": "2017-04-06 08:49:09",
        "first_observation_date": "2012-08-25",
        "last_observation_date": "2012-08-27",
        "data_arc_in_days": 2,
        "observations_used": 23,
        "orbit_uncertainty": "8",
        "minimum_orbit_intersection": ".0710585",
        "jupiter_tisserand_invariant": "4.099",
        "epoch_osculation": "2456165.5",
        "eccentricity": ".3650254892927374",
        "semi_major_axis": "1.66406476986806",
        "inclination": "22.63815413712069",
        "ascending_node_longitude": "151.4474252311687",
        "orbital_period": "784.06806626876",
        "perihelion_distance": "1.056638713032165",
        "perihelion_argument": "154.0844569137946",
        "aphelion_distance": "2.271490826703955",
        "perihelion_time": "2456139.180463323962",
        "mean_anomaly": "12.08445237218201",
        "mean_motion": ".4591438109616882",
        "equinox": "J2000",
        "orbit_class": {
            "orbit_class_type": "AMO",
            "orbit_class_description": "Near-Earth asteroid orbits similar to that of 1221 Amor",
            "orbit_class_range": "1.017 AU < q (perihelion) < 1.3 AU"
        }
    },
    "is_sentry_object": false
}